*******************************************************************************
 Revised: June 21, 2016                 Mars                            499 / 4
 
 PHYSICAL DATA (updated 2019-Oct-29):
  Vol. mean radius (km) = 3389.92+-0.04   Density (g/cm^3)      =  3.933(5+-4)
  Mass x10^23 (kg)      =    6.4171       Flattening, f         =  1/169.779
  Volume (x10^10 km^3)  =   16.318        Equatorial radius (km)=  3396.19
  Sidereal rot. period  =   24.622962 hr  Sid. rot. rate, rad/s =  0.0000708822 
  Mean solar day (sol)  =   88775.24415 s Polar gravity m/s^2   =  3.758
  Core radius (km)      = ~1700           Equ. gravity  m/s^2   =  3.71
  Geometric Albedo      =    0.150                                              

  GM (km^3/s^2)         = 42828.375214    Mass ratio (Sun/Mars) = 3098703.59
  GM 1-sigma (km^3/s^2) = +- 0.00028      Mass of atmosphere, kg= ~ 2.5 x 10^16
  Mean temperature (K)  =  210            Atmos. pressure (bar) =    0.0056 
  Obliquity to orbit    =   25.19 deg     Max. angular diam.    =  17.9"
  Mean sidereal orb per =    1.88081578 y Visual mag. V(1,0)    =  -1.52
  Mean sidereal orb per =  686.98 d       Orbital speed,  km/s  =  24.13
  Hill's sphere rad. Rp =  319.8          Escape speed, km/s    =   5.027
                                 Perihelion  Aphelion    Mean
  Solar Constant (W/m^2)         717         493         589
  Maximum Planetary IR (W/m^2)   470         315         390
  Minimum Planetary IR (W/m^2)    30          30          30
*******************************************************************************


*******************************************************************************
Ephemeris / WWW_USER Sun Nov 14 18:29:46 2021 Pasadena, USA      / Horizons
*******************************************************************************
Target body name: Mars (499)                      {source: mar097}
Center body name: Sun (10)                        {source: mar097}
Center-site name: BODY CENTER
*******************************************************************************
Start time      : A.D. 1970-Jan-01 00:00:00.0000 TDB
Stop  time      : A.D. 2040-Jan-01 00:00:00.0000 TDB
Step-size       : 17280 minutes
*******************************************************************************
Center geodetic : 0.00000000,0.00000000,0.0000000 {E-lon(deg),Lat(deg),Alt(km)}
Center cylindric: 0.00000000,0.00000000,0.0000000 {E-lon(deg),Dxy(km),Dz(km)}
Center radii    : 696000.0 x 696000.0 x 696000.0 k{Equator, meridian, pole}    
Output units    : AU-D
Output type     : GEOMETRIC cartesian states
Output format   : 2 (position and velocity)
Reference frame : ICRF
*******************************************************************************
JDTDB
   X     Y     Z
   VX    VY    VZ
*******************************************************************************
$$SOE
2465535.500000000 = A.D. 2038-Apr-22 00:00:00.0000 TDB 
 X =-1.096821850952860E+00 Y = 1.109813262321515E+00 Z = 5.386014690591506E-01
 VX=-9.927621435844167E-03 VY=-7.469817672690443E-03 VZ=-3.158825234366777E-03
2465547.500000000 = A.D. 2038-May-04 00:00:00.0000 TDB 
 X =-1.210594565079624E+00 Y = 1.015083585664509E+00 Z = 4.982156133131980E-01
 VX=-9.021210404437549E-03 VY=-8.304585245813272E-03 VZ=-3.566143666411326E-03
2465559.500000000 = A.D. 2038-May-16 00:00:00.0000 TDB 
 X =-1.313028073860386E+00 Y = 9.108442397015968E-01 Z = 4.531622871100226E-01
 VX=-8.039087015710577E-03 VY=-9.054109733876350E-03 VZ=-3.936401599034320E-03
2465571.500000000 = A.D. 2038-May-28 00:00:00.0000 TDB 
 X =-1.403261507397586E+00 Y = 7.981409342526670E-01 Z = 4.038979552695768E-01
 VX=-6.989172911603518E-03 VY=-9.714648489280754E-03 VZ=-4.267669064058417E-03
2465583.500000000 = A.D. 2038-Jun-09 00:00:00.0000 TDB 
 X =-1.480528257191591E+00 Y = 6.780624427607430E-01 Z = 3.509013709581792E-01
 VX=-5.879265254371113E-03 VY=-1.028275237512979E-02 VZ=-4.558154340377620E-03
2465595.500000000 = A.D. 2038-Jun-21 00:00:00.0000 TDB 
 X =-1.544154869766935E+00 Y = 5.517375710611236E-01 Z = 2.946721576594924E-01
 VX=-4.717107491305836E-03 VY=-1.075518901416951E-02 VZ=-4.806165810102393E-03
2465607.500000000 = A.D. 2038-Jul-03 00:00:00.0000 TDB 
 X =-1.593560890101572E+00 Y = 4.203328096657150E-01 Z = 2.357297367130146E-01
 VX=-3.510466044438621E-03 VY=-1.112890425955382E-02 VZ=-5.010092928910236E-03
2465619.500000000 = A.D. 2038-Jul-15 00:00:00.0000 TDB 
 X =-1.628259536190677E+00 Y = 2.850504337338104E-01 Z = 1.746124680749412E-01
 VX=-2.267201141175509E-03 VY=-1.140098207774312E-02 VZ=-5.168386467916888E-03
2465631.500000000 = A.D. 2038-Jul-27 00:00:00.0000 TDB 
 X =-1.647859376180019E+00 Y = 1.471270040831685E-01 Z = 1.118770051989556E-01
 VX=-9.953604816872511E-04 VY=-1.156862269490132E-02 VZ=-5.279545573701964E-03
2465643.500000000 = A.D. 2038-Aug-08 00:00:00.0000 TDB 
 X =-1.652067170332979E+00 Y = 7.831984400495855E-03 Z = 4.809773791961610E-02
 VX= 2.967215898852613E-04 VY=-1.162914397292453E-02 VZ=-5.342115492784961E-03
2465655.500000000 = A.D. 2038-Aug-20 00:00:00.0000 TDB 
 X =-1.640691918349501E+00 Y =-1.315337766287268E-01 Z =-1.613379458376118E-02
 VX= 1.600322248426860E-03 VY=-1.158000262761545E-02 VZ=-5.354694759377448E-03
2465667.500000000 = A.D. 2038-Sep-01 00:00:00.0000 TDB 
 X =-1.613650133575530E+00 Y =-2.696399492668596E-01 Z =-8.020963741877433E-02
 VX= 2.906228846804467E-03 VY=-1.141883667577695E-02 VZ=-5.315952291872651E-03
2465679.500000000 = A.D. 2038-Sep-13 00:00:00.0000 TDB 
 X =-1.570972349540667E+00 Y =-4.051292208299201E-01 Z =-1.435063917772143E-01
 VX= 4.204630428316107E-03 VY=-1.114352306889405E-02 VZ=-5.224649904222962E-03
2465691.500000000 = A.D. 2038-Sep-25 00:00:00.0000 TDB 
 X =-1.512811016081783E+00 Y =-5.366207240728240E-01 Z =-2.053865641291341E-01
 VX= 5.485002366888096E-03 VY=-1.075228031030318E-02 VZ=-5.079686226150374E-03
2465703.500000000 = A.D. 2038-Oct-07 00:00:00.0000 TDB 
 X =-1.439449580533771E+00 Y =-6.627149033743400E-01 Z =-2.652005549959300E-01
 VX= 6.736022861851067E-03 VY=-1.024379678934032E-02 VZ=-4.880154569096400E-03
2465715.500000000 = A.D. 2038-Oct-19 00:00:00.0000 TDB 
 X =-1.351312556917088E+00 Y =-7.820000090693744E-01 Z =-3.222893714603663E-01
 VX= 7.945489395877223E-03 VY=-9.617380750875849E-03 VZ=-4.625408876546475E-03
2465727.500000000 = A.D. 2038-Oct-31 00:00:00.0000 TDB 
 X =-1.248976508969125E+00 Y =-8.930606595388932E-01 Z =-3.759882588505398E-01
 VX= 9.100254745356678E-03 VY=-8.873153946039153E-03 VZ=-4.315150907070529E-03
2465739.500000000 = A.D. 2038-Nov-12 00:00:00.0000 TDB 
 X =-1.133181605572445E+00 Y =-9.944889516180079E-01 Z =-4.256314860723459E-01
 VX= 1.018619739764719E-02 VY=-8.012282681939443E-03 VZ=-3.949535278290955E-03
2465751.500000000 = A.D. 2038-Nov-24 00:00:00.0000 TDB 
 X =-1.004843245424963E+00 Y =-1.084898566284137E+00 Z =-4.705585040280186E-01
 VX= 1.118824244800944E-02 VY=-7.037245593509317E-03 VZ=-3.529293103282394E-03
2465763.500000000 = A.D. 2038-Dec-06 00:00:00.0000 TDB 
 X =-8.650630562901985E-01 Y =-1.162942272639752E+00 Z =-5.101216811112865E-01
 VX= 1.209044523288783E-02 VY=-5.952129539216006E-03 VZ=-3.055869813726599E-03
2465775.500000000 = A.D. 2038-Dec-18 00:00:00.0000 TDB 
 X =-7.151385457611786E-01 Y =-1.227333150303569E+00 Z =-5.436957699092735E-01
 VX= 1.287613598299305E-02 VY=-4.762958741548927E-03 VZ=-2.531578835061797E-03
2465787.500000000 = A.D. 2038-Dec-30 00:00:00.0000 TDB 
 X =-5.565703411161540E-01 Y =-1.276869971180787E+00 Z =-5.706893506524805E-01
 VX= 1.352818657645267E-02 VY=-3.478047448319270E-03 VZ=-1.959772211031616E-03
2465799.500000000 = A.D. 2039-Jan-11 00:00:00.0000 TDB 
 X =-3.910654982914113E-01 Y =-1.310466658534737E+00 Z =-5.905582615302344E-01
 VX= 1.402939334286672E-02 VY=-2.108325791774561E-03 VZ=-1.345000188657331E-03
2465811.500000000 = A.D. 2039-Jan-23 00:00:00.0000 TDB 
 X =-2.205355081981542E-01 Y =-1.327185488667249E+00 Z =-6.028208827740674E-01
 VX= 1.436298383445391E-02 VY=-6.676335387495384E-04 VZ=-6.931591105774837E-04
2465823.500000000 = A.D. 2039-Feb-04 00:00:00.0000 TDB 
 X =-4.708736128730771E-02 Y =-1.326273424487831E+00 Z =-6.070750426100170E-01
 VX= 1.451326732046366E-02 VY= 8.270601695152444E-04 VZ=-1.160996294578822E-05
2465835.500000000 = A.D. 2039-Feb-16 00:00:00.0000 TDB 
 X = 1.269940182923176E-01 Y =-1.307200399826549E+00 Z =-6.030160517267470E-01
 VX= 1.446642051430487E-02 VY= 2.355559234278126E-03 VZ= 6.907556833239827E-04
2465847.500000000 = A.D. 2039-Feb-28 00:00:00.0000 TDB 
 X = 2.992734895114929E-01 Y =-1.269697770080048E+00 Z =-5.904550906201098E-01
 VX= 1.421138723149839E-02 VY= 3.894521043176908E-03 VZ= 1.403528135751377E-03
2465859.500000000 = A.D. 2039-Mar-12 00:00:00.0000 TDB 
 X = 4.672045770400629E-01 Y =-1.213794465295865E+00 Z =-5.693368372084073E-01
 VX= 1.374082580232139E-02 VY= 5.417762290695540E-03 VZ= 2.114895476035145E-03
2465871.500000000 = A.D. 2039-Mar-24 00:00:00.0000 TDB 
 X = 6.281797225485052E-01 Y =-1.139848074153485E+00 Z =-5.397550691320046E-01
 VX= 1.305205248581161E-02 VY= 6.896804337102998E-03 VZ= 2.811867652141440E-03
2465883.500000000 = A.D. 2039-Apr-05 00:00:00.0000 TDB 
 X = 7.795914774693122E-01 Y =-1.048567642533539E+00 Z =-5.019647749669754E-01
 VX= 1.214789517768572E-02 VY= 8.301713325818591E-03 VZ= 3.480638088843068E-03
2465895.500000000 = A.D. 2039-Apr-17 00:00:00.0000 TDB 
 X = 9.189026618143178E-01 Y =-9.410247686853581E-01 Z =-4.563891357280506E-01
 VX= 1.103731790573825E-02 VY= 9.602199781616029E-03 VZ= 4.107071789712571E-03
2465907.500000000 = A.D. 2039-Apr-29 00:00:00.0000 TDB 
 X = 1.043722191934417E+00 Y =-8.186502307187288E-01 Z =-4.036200196600986E-01
 VX= 9.735724920849660E-03 VY= 1.076891903887952E-02 VZ= 4.677293837774071E-03
2465919.500000000 = A.D. 2039-May-11 00:00:00.0000 TDB 
 X = 1.151882183483206E+00 Y =-6.832142467972347E-01 Z =-3.444110042779245E-01
 VX= 8.264857232473477E-03 VY= 1.177487987632778E-02 VZ= 5.178337972527717E-03
